{"fetched_at":"2026-03-30T06:02:59Z","count":15439,"tles":[{"name":"FORTE","line1":"1 24920U 97047A   26087.81744977  .00000199  00000+0  10335-3 0  9997","line2":"2 24920  69.9537 195.5475 0020691  20.9240 339.2725 14.27909222487210","category":"Other"}]}